{
  "norad_id": 8820,
  "name": "LAGEOS 1",
  "history": [
    {
      "epoch": "2026-03-28T10:32:44.490048Z",
      "apogee_km": 5947.860257355208,
      "perigee_km": 5838.236848337411,
      "latitude_deg": 20.01983907604625,
      "longitude_deg": 160.13400149015115,
      "height_km": 5868.066003885372,
      "semi_major_axis_km": 12271.18555284631,
      "eccentricity": 0.0044667,
      "inclination_deg": 109.8125,
      "raan_deg": 151.7023,
      "arg_perigee_deg": 319.5662,
      "mean_anomaly_deg": 61.3227,
      "mean_motion_rev_day": 6.38664795
    }
  ]
}